STARLINK-2680           
1 48432U 21040E   26068.52068881  .00000312  00000+0  39815-4 0  9993
2 48432  53.0562 147.7747 0001551 101.3498 258.7665 15.06411722267080
STARLINK-5895           
1 55964U 23037BC  26068.93316413  .00010921  00000+0  72850-3 0  9993
2 55964  69.9972 260.0280 0004986 264.4993  95.5602 15.07243555164606
